start=new Date('2021-12-27T00:00:00.000Z').valueOf();
sats=[{"GP_ID":"192523428","RA_OF_ASC_NODE":"172.8951","NORAD_CAT_ID":"46030","MEAN_MOTION_DOT":"-0.00000441","OBJECT_TYPE":"PAYLOAD","TLE_LINE2":"2 46030  53.0524 172.8951 0002133  85.8018 274.3215 15.06391956 77649","SEMIMAJOR_AXIS":"6925.373","OBJECT_NAME":"STARLINK-1534","MEAN_MOTION":"15.06391956","PERIAPSIS":"545.761","REF_FRAME":"TEME","BSTAR":"-0.00001066100000","CENTER_NAME":"EARTH","ELEMENT_SET_NO":"999","EPHEMERIS_TYPE":"0","EPOCH":"2021-12-26T17:09:09.911520","REV_AT_EPOCH":"7764","COUNTRY_CODE":"US","CLASSIFICATION_TYPE":"U","TLE_LINE1":"1 46030U 20055D   21360.71469805 -.00000441  00000-0 -10661-4 0  9996","FILE":"3251846","MEAN_ELEMENT_THEORY":"SGP4","TIME_SYSTEM":"UTC","APOAPSIS":"548.715","SITE":"AFETR","MEAN_ANOMALY":"274.3215","MEAN_MOTION_DDOT":"0.0000000000000","RCS_SIZE":"LARGE","INCLINATION":"53.0524","PERIOD":"95.593","LAUNCH_DATE":"2020-08-07","ECCENTRICITY":"0.00021330","OBJECT_ID":"2020-055D","ARG_OF_PERICENTER":"85.8018","DECAY_DATE":null},{"CENTER_NAME":"EARTH","BSTAR":"-0.00006577600000","REF_FRAME":"TEME","MEAN_MOTION":"15.06385850","OBJECT_NAME":"STARLINK-1544","PERIAPSIS":"545.427","SEMIMAJOR_AXIS":"6925.392","OBJECT_TYPE":"PAYLOAD","MEAN_MOTION_DOT":"-0.00001261","TLE_LINE2":"2 46031  53.0534 172.8828 0002643  84.1205 276.0085 15.06385850 77673","NORAD_CAT_ID":"46031","GP_ID":"192522178","RA_OF_ASC_NODE":"172.8828","DECAY_DATE":null,"ARG_OF_PERICENTER":"84.1205","ECCENTRICITY":"0.00026430","OBJECT_ID":"2020-055E","LAUNCH_DATE":"2020-08-07","PERIOD":"95.593","RCS_SIZE":"LARGE","INCLINATION":"53.0534","MEAN_MOTION_DDOT":"0.0000000000000","SITE":"AFETR","APOAPSIS":"549.087","MEAN_ANOMALY":"276.0085","COUNTRY_CODE":"US","TIME_SYSTEM":"UTC","TLE_LINE1":"1 46031U 20055E   21360.71839169 -.00001261  00000-0 -65776-4 0  9999","FILE":"3251846","MEAN_ELEMENT_THEORY":"SGP4","CLASSIFICATION_TYPE":"U","EPOCH":"2021-12-26T17:14:29.042016","EPHEMERIS_TYPE":"0","ELEMENT_SET_NO":"999","REV_AT_EPOCH":"7767"},{"TLE_LINE2":"2 46032  53.0524 172.1500 0002355  90.0853 270.0406 15.06394121 77715","OBJECT_TYPE":"PAYLOAD","MEAN_MOTION_DOT":"0.00001043","SEMIMAJOR_AXIS":"6925.367","RA_OF_ASC_NODE":"172.1500","GP_ID":"192522929","NORAD_CAT_ID":"46032","REF_FRAME":"TEME","BSTAR":"0.00008896800000","CENTER_NAME":"EARTH","PERIAPSIS":"545.601","OBJECT_NAME":"STARLINK-1555","MEAN_MOTION":"15.06394121","MEAN_ANOMALY":"270.0406","SITE":"AFETR","APOAPSIS":"548.863","RCS_SIZE":"LARGE","INCLINATION":"53.0524","MEAN_MOTION_DDOT":"0.0000000000000","REV_AT_EPOCH":"7771","EPHEMERIS_TYPE":"0","EPOCH":"2021-12-26T21:08:02.119776","ELEMENT_SET_NO":"999","TIME_SYSTEM":"UTC","TLE_LINE1":"1 46032U 20055F   21360.88058009  .00001043  00000-0  88968-4 0  9998","MEAN_ELEMENT_THEORY":"SGP4","FILE":"3251846","CLASSIFICATION_TYPE":"U","COUNTRY_CODE":"US","ECCENTRICITY":"0.00023550","OBJECT_ID":"2020-055F","DECAY_DATE":null,"ARG_OF_PERICENTER":"90.0853","PERIOD":"95.593","LAUNCH_DATE":"2020-08-07"},{"SEMIMAJOR_AXIS":"6925.357","TLE_LINE2":"2 46033  53.0537 172.2398 0002237  88.7943 271.3302 15.06397276 77688","OBJECT_TYPE":"PAYLOAD","MEAN_MOTION_DOT":"0.00001048","NORAD_CAT_ID":"46033","RA_OF_ASC_NODE":"172.2398","GP_ID":"192523180","BSTAR":"0.00008927000000","CENTER_NAME":"EARTH","REF_FRAME":"TEME","PERIAPSIS":"545.673","MEAN_MOTION":"15.06397276","OBJECT_NAME":"STARLINK-1556","INCLINATION":"53.0537","RCS_SIZE":"LARGE","MEAN_MOTION_DDOT":"0.0000000000000","MEAN_ANOMALY":"271.3302","SITE":"AFETR","APOAPSIS":"548.771","TIME_SYSTEM":"UTC","FILE":"3251846","TLE_LINE1":"1 46033U 20055G   21360.86214422  .00001048  00000-0  89270-4 0  9992","MEAN_ELEMENT_THEORY":"SGP4","CLASSIFICATION_TYPE":"U","COUNTRY_CODE":"US","REV_AT_EPOCH":"7768","EPHEMERIS_TYPE":"0","EPOCH":"2021-12-26T20:41:29.260608","ELEMENT_SET_NO":"999","DECAY_DATE":null,"ARG_OF_PERICENTER":"88.7943","ECCENTRICITY":"0.00022370","OBJECT_ID":"2020-055G","LAUNCH_DATE":"2020-08-07","PERIOD":"95.592"},{"TIME_SYSTEM":"UTC","TLE_LINE1":"1 46034U 20055H   21360.79948025  .00000906  00000-0  79764-4 0  9997","FILE":"3251846","MEAN_ELEMENT_THEORY":"SGP4","CLASSIFICATION_TYPE":"U","COUNTRY_CODE":"US","REV_AT_EPOCH":"7767","EPOCH":"2021-12-26T19:11:15.093600","EPHEMERIS_TYPE":"0","ELEMENT_SET_NO":"999","INCLINATION":"53.0537","RCS_SIZE":"LARGE","MEAN_MOTION_DDOT":"0.0000000000000","MEAN_ANOMALY":"273.0270","SITE":"AFETR","APOAPSIS":"548.835","LAUNCH_DATE":"2020-08-07","PERIOD":"95.593","DECAY_DATE":null,"ARG_OF_PERICENTER":"87.0982","OBJECT_ID":"2020-055H","ECCENTRICITY":"0.00023020","NORAD_CAT_ID":"46034","RA_OF_ASC_NODE":"172.5304","GP_ID":"192523929","SEMIMAJOR_AXIS":"6925.375","TLE_LINE2":"2 46034  53.0537 172.5304 0002302  87.0982 273.0270 15.06391247 77671","OBJECT_TYPE":"PAYLOAD","MEAN_MOTION_DOT":"0.00000906","PERIAPSIS":"545.646","MEAN_MOTION":"15.06391247","OBJECT_NAME":"STARLINK-1557","BSTAR":"0.00007976400000","CENTER_NAME":"EARTH","REF_FRAME":"TEME"},{"ECCENTRICITY":"0.00026280","OBJECT_ID":"2020-055J","ARG_OF_PERICENTER":"89.1177","DECAY_DATE":null,"PERIOD":"95.593","LAUNCH_DATE":"2020-08-07","APOAPSIS":"549.074","SITE":"AFETR","MEAN_ANOMALY":"271.0113","MEAN_MOTION_DDOT":"0.0000000000000","RCS_SIZE":"LARGE","INCLINATION":"53.0527","ELEMENT_SET_NO":"999","EPHEMERIS_TYPE":"0","EPOCH":"2021-12-26T17:46:19.416000","REV_AT_EPOCH":"7769","COUNTRY_CODE":"US","FILE":"3251846","TLE_LINE1":"1 46035U 20055J   21360.74050250  .00000791  00000-0  72061-4 0  9992","MEAN_ELEMENT_THEORY":"SGP4","CLASSIFICATION_TYPE":"U","TIME_SYSTEM":"UTC","REF_FRAME":"TEME","CENTER_NAME":"EARTH","BSTAR":"0.00007206100000","MEAN_MOTION":"15.06386703","OBJECT_NAME":"STARLINK-1558","PERIAPSIS":"545.434","MEAN_MOTION_DOT":"0.00000791","OBJECT_TYPE":"PAYLOAD","TLE_LINE2":"2 46035  53.0527 172.7813 0002628  89.1177 271.0113 15.06386703 77695","SEMIMAJOR_AXIS":"6925.389","GP_ID":"192522679","RA_OF_ASC_NODE":"172.7813","NORAD_CAT_ID":"46035"},{"MEAN_MOTION_DDOT":"0.0000000000000","RCS_SIZE":"LARGE","INCLINATION":"53.0526","MEAN_ANOMALY":"271.8179","APOAPSIS":"548.764","SITE":"AFETR","TLE_LINE1":"1 46036U 20055K   21360.92479270  .00001410  00000-0  11358-3 0  9990","MEAN_ELEMENT_THEORY":"SGP4","FILE":"3251846","CLASSIFICATION_TYPE":"U","TIME_SYSTEM":"UTC","COUNTRY_CODE":"US","REV_AT_EPOCH":"7772","ELEMENT_SET_NO":"999","EPHEMERIS_TYPE":"0","EPOCH":"2021-12-26T22:11:42.089280","ARG_OF_PERICENTER":"88.3063","DECAY_DATE":null,"OBJECT_ID":"2020-055K","ECCENTRICITY":"0.00022120","LAUNCH_DATE":"2020-08-07","PERIOD":"95.593","SEMIMAJOR_AXIS":"6925.367","TLE_LINE2":"2 46036  53.0526 171.9507 0002212  88.3063 271.8179 15.06393975 77723","MEAN_MOTION_DOT":"0.00001410","OBJECT_TYPE":"PAYLOAD","NORAD_CAT_ID":"46036","RA_OF_ASC_NODE":"171.9507","GP_ID":"192522429","BSTAR":"0.00011358000000","CENTER_NAME":"EARTH","REF_FRAME":"TEME","PERIAPSIS":"545.700","OBJECT_NAME":"STARLINK-1560","MEAN_MOTION":"15.06393975"},{"OBJECT_NAME":"STARLINK-1565","MEAN_MOTION":"15.06392024","PERIAPSIS":"545.537","BSTAR":"0.00007046900000","CENTER_NAME":"EARTH","REF_FRAME":"TEME","NORAD_CAT_ID":"46037","GP_ID":"192523681","RA_OF_ASC_NODE":"172.2821","SEMIMAJOR_AXIS":"6925.373","MEAN_MOTION_DOT":"0.00000768","OBJECT_TYPE":"PAYLOAD","TLE_LINE2":"2 46037  53.0542 172.2821 0002456  88.9647 271.1623 15.06392024 77708","LAUNCH_DATE":"2020-08-07","PERIOD":"95.593","ARG_OF_PERICENTER":"88.9647","DECAY_DATE":null,"ECCENTRICITY":"0.00024560","OBJECT_ID":"2020-055L","COUNTRY_CODE":"US","TLE_LINE1":"1 46037U 20055L   21360.85477413  .00000768  00000-0  70469-4 0  9994","FILE":"3251846","MEAN_ELEMENT_THEORY":"SGP4","CLASSIFICATION_TYPE":"U","TIME_SYSTEM":"UTC","ELEMENT_SET_NO":"999","EPOCH":"2021-12-26T20:30:52.484832","EPHEMERIS_TYPE":"0","REV_AT_EPOCH":"7770","MEAN_MOTION_DDOT":"0.0000000000000","RCS_SIZE":"LARGE","INCLINATION":"53.0542","APOAPSIS":"548.939","SITE":"AFETR","MEAN_ANOMALY":"271.1623"},{"CLASSIFICATION_TYPE":"U","TLE_LINE1":"1 46038U 20055M   21360.86953648  .00001420  00000-0  11427-3 0  9999","FILE":"3251846","MEAN_ELEMENT_THEORY":"SGP4","TIME_SYSTEM":"UTC","COUNTRY_CODE":"US","REV_AT_EPOCH":"7770","ELEMENT_SET_NO":"999","EPHEMERIS_TYPE":"0","EPOCH":"2021-12-26T20:52:07.951872","MEAN_MOTION_DDOT":"0.0000000000000","INCLINATION":"53.0538","RCS_SIZE":"LARGE","MEAN_ANOMALY":"271.3039","APOAPSIS":"549.201","SITE":"AFETR","LAUNCH_DATE":"2020-08-07","PERIOD":"95.593","ARG_OF_PERICENTER":"88.8273","DECAY_DATE":null,"ECCENTRICITY":"0.00028260","OBJECT_ID":"2020-055M","NORAD_CAT_ID":"46038","RA_OF_ASC_NODE":"172.2158","GP_ID":"192523429","SEMIMAJOR_AXIS":"6925.379","TLE_LINE2":"2 46038  53.0538 172.2158 0002826  88.8273 271.3039 15.06390103 77701","MEAN_MOTION_DOT":"0.00001420","OBJECT_TYPE":"PAYLOAD","PERIAPSIS":"545.287","MEAN_MOTION":"15.06390103","OBJECT_NAME":"STARLINK-1567","BSTAR":"0.00011427000000","CENTER_NAME":"EARTH","REF_FRAME":"TEME"},{"SEMIMAJOR_AXIS":"6925.374","TLE_LINE2":"2 46039  53.0536 172.1823 0002373  90.3052 269.8209 15.06391753 77701","OBJECT_TYPE":"PAYLOAD","MEAN_MOTION_DOT":"0.00000925","NORAD_CAT_ID":"46039","RA_OF_ASC_NODE":"172.1823","GP_ID":"192522179","BSTAR":"0.00008105400000","CENTER_NAME":"EARTH","REF_FRAME":"TEME","PERIAPSIS":"545.595","MEAN_MOTION":"15.06391753","OBJECT_NAME":"STARLINK-1569","INCLINATION":"53.0536","RCS_SIZE":"LARGE","MEAN_MOTION_DDOT":"0.0000000000000","MEAN_ANOMALY":"269.8209","SITE":"AFETR","APOAPSIS":"548.882","TIME_SYSTEM":"UTC","TLE_LINE1":"1 46039U 20055N   21360.87688627  .00000925  00000-0  81054-4 0  9996","FILE":"3251846","CLASSIFICATION_TYPE":"U","MEAN_ELEMENT_THEORY":"SGP4","COUNTRY_CODE":"US","REV_AT_EPOCH":"7770","EPHEMERIS_TYPE":"0","EPOCH":"2021-12-26T21:02:42.973728","ELEMENT_SET_NO":"999","DECAY_DATE":null,"ARG_OF_PERICENTER":"90.3052","ECCENTRICITY":"0.00023730","OBJECT_ID":"2020-055N","LAUNCH_DATE":"2020-08-07","PERIOD":"95.593"}];
